NORAD_CAT_ID,OBJECT_NAME,OBJECT_TYPE,EPOCH,MEAN_MOTION,ECCENTRICITY,INCLINATION,RA_OF_ASC_NODE,ARG_OF_PERICENTER,MEAN_ANOMALY,BSTAR,MEAN_MOTION_DOT,MEAN_MOTION_DDOT,TLE_LINE0,TLE_LINE1,TLE_LINE2,SEMIMAJOR_AXIS,PERIOD,APOGEE,PERIGEE,DECAYED
55655.0,STARLINK-5267,PAYLOAD,2023-03-16 11:38:28,15.69932784,0.0003363,70.001,74.8157,271.9022,88.1788,1.983e-05,2.173e-05,0.0,0 STARLINK-5267,1 55655U 23021AD  23075.48504797  .00002173  00000-0  19830-4 0  9993,2 55655  70.0010  74.8157 0003363 271.9022  88.1788 15.69932784  5049,6737.226,91.724,361.357,356.826,0.0
55655.0,STARLINK-5267,PAYLOAD,2023-03-16 23:52:29,15.69918519,0.0003263,70.0012,73.3848,273.9266,86.1557,5.0442e-06,3.94e-06,0.0,0 STARLINK-5267,1 55655U 23021AD  23075.99478963  .00000394  00000-0  50442-5 0  9992,2 55655  70.0012  73.3848 0003263 273.9266  86.1557 15.69918519  4819,6737.267,91.725,361.33,356.934,0.0
55655.0,STARLINK-5267,PAYLOAD,2023-03-17 05:59:29,15.69933877,0.0003664,70.0001,72.6664,272.5104,87.5673,4.8537e-05,5.63e-05,0.0,0 STARLINK-5267,1 55655U 23021AD  23076.24965124  .00005630  00000-0  48537-4 0  9990,2 55655  70.0001  72.6664 0003664 272.5104  87.5673 15.69933877  4858,6737.223,91.724,361.557,356.62,0.0
55655.0,STARLINK-5267,PAYLOAD,2023-03-17 12:06:30,15.69937954,0.0003593,70.0009,71.9506,267.6455,92.4329,5.8074e-05,6.78e-05,0.0,0 STARLINK-5267,1 55655U 23021AD  23076.50451744  .00006780  00000-0  58074-4 0  9991,2 55655  70.0009  71.9506 0003593 267.6455  92.4329 15.69937954  5201,6737.212,91.723,361.497,356.656,0.0
55655.0,STARLINK-5267,PAYLOAD,2023-03-17 16:41:45,15.69923557,0.0003462,70.0004,71.4124,266.2486,93.8313,1.5339e-05,1.632e-05,0.0,0 STARLINK-5267,1 55655U 23021AD  23076.69567051  .00001632  00000-0  15339-4 0  9998,2 55655  70.0004  71.4124 0003462 266.2486  93.8313 15.69923557  4921,6737.253,91.724,361.45,356.785,0.0
55655.0,STARLINK-5267,PAYLOAD,2023-03-18 17:09:47,15.69933125,0.0003332,70.001,68.5463,268.9575,91.1239,1.4629e-05,1.547e-05,0.0,0 STARLINK-5267,1 55655U 23021AD  23077.71513390  .00001547  00000-0  14629-4 0  9995,2 55655  70.0010  68.5463 0003332 268.9575  91.1239 15.69933125  5083,6737.225,91.724,361.335,356.845,0.0
55655.0,STARLINK-5267,PAYLOAD,2023-03-19 08:27:18,15.69930182,0.0003532,70.0005,66.755,262.6441,97.4353,1.6706e-05,1.797e-05,0.0,0 STARLINK-5267,1 55655U 23021AD  23078.35230143  .00001797  00000-0  16706-4 0  9993,2 55655  70.0005  66.7550 0003532 262.6441  97.4353 15.69930182  5490,6737.234,91.724,361.478,356.719,0.0
55655.0,STARLINK-5267,PAYLOAD,2023-03-19 22:13:05,15.69918992,0.0003377,70.0,65.1428,262.8875,97.1936,-2.9894e-06,-5.72e-06,0.0,0 STARLINK-5267,1 55655U 23021AD  23078.92575706 -.00000572  00000-0 -29894-5 0  9998,2 55655  70.0000  65.1428 0003377 262.8875  97.1936 15.69918992  5581,6737.266,91.724,361.406,356.856,0.0
55655.0,STARLINK-5267,PAYLOAD,2023-03-20 10:27:06,15.69927161,0.0003068,69.9998,63.709,261.9364,98.1484,-9.4742e-06,-1.352e-05,0.0,0 STARLINK-5267,1 55655U 23021AD  23079.43548993 -.00001352  00000-0 -94742-5 0  9994,2 55655  69.9998  63.7090 0003068 261.9364  98.1484 15.69927161  5355,6737.242,91.724,361.174,357.04,0.0
55655.0,STARLINK-5267,PAYLOAD,2023-03-20 16:34:07,15.69920193,0.0002816,70.0002,62.9936,267.0909,92.9965,4.8323e-08,-2.07e-06,0.0,0 STARLINK-5267,1 55655U 23021AD  23079.69036290 -.00000207  00000-0  48323-7 0  9997,2 55655  70.0002  62.9936 0002816 267.0909  92.9965 15.69920193  5394,6737.262,91.724,361.025,357.23,0.0
55655.0,STARLINK-5267,PAYLOAD,2023-03-21 07:51:37,15.69925728,0.0003108,69.9994,61.2009,254.3433,105.742,1.5843e-05,1.693e-05,0.0,0 STARLINK-5267,1 55655U 23021AD  23080.32752077  .00001693  00000-0  15843-4 0  9994,2 55655  69.9994  61.2009 0003108 254.3433 105.7420 15.69925728  5499,6737.246,91.724,361.205,357.018,0.0
55655.0,STARLINK-5267,PAYLOAD,2023-03-21 10:55:09,15.69912461,0.0002887,69.9991,60.8431,261.073,99.0139,-5.2081e-06,-8.38e-06,0.0,0 STARLINK-5267,1 55655U 23021AD  23080.45496671 -.00000838  00000-0 -52081-5 0  9991,2 55655  69.9991  60.8431 0002887 261.0730  99.0139 15.69912461  5513,6737.284,91.725,361.095,357.204,0.0
55655.0,STARLINK-5267,PAYLOAD,2023-03-22 05:16:09,15.69927572,0.0002832,70.0002,58.6939,258.9912,101.0966,1.5699e-05,1.676e-05,0.0,0 STARLINK-5267,1 55655U 23021AD  23081.21955614  .00001676  00000-0  15699-4 0  9995,2 55655  70.0002  58.6939 0002832 258.9912 101.0966 15.69927572  5638,6737.241,91.724,361.014,357.198,0.0
55655.0,STARLINK-5267,PAYLOAD,2023-03-22 15:58:25,15.69925863,0.0003042,69.9992,57.4404,266.4555,93.6292,1.127e-05,1.143e-05,0.0,0 STARLINK-5267,1 55655U 23021AD  23081.66557502  .00001143  00000-0  11270-4 0  9998,2 55655  69.9992  57.4404 0003042 266.4555  93.6292 15.69925863  6010,6737.246,91.724,361.161,357.062,0.0
55655.0,STARLINK-5267,PAYLOAD,2023-03-23 04:12:26,15.69927398,0.0003274,69.9994,56.0069,264.4592,95.623,7.3347e-06,6.69e-06,0.0,0 STARLINK-5267,1 55655U 23021AD  23082.17530872  .00000669  00000-0  73347-5 0  9992,2 55655  69.9994  56.0069 0003274 264.4592  95.6230 15.69927398  5782,6737.242,91.724,361.312,356.901,0.0
55655.0,STARLINK-5267,PAYLOAD,2023-03-23 08:47:42,15.69924105,0.0003244,70.0011,55.4689,263.6386,96.444,7.055e-06,6.36e-06,0.0,0 STARLINK-5267,1 55655U 23021AD  23082.36645936  .00000636  00000-0  70550-5 0  9998,2 55655  70.0011  55.4689 0003244 263.6386  96.4440 15.69924105  6129,6737.251,91.724,361.302,356.931,0.0
55655.0,STARLINK-5267,PAYLOAD,2023-03-23 22:33:27,15.69932398,0.0003301,70.0017,53.8573,266.7836,93.2982,2.4051e-05,2.681e-05,0.0,0 STARLINK-5267,1 55655U 23021AD  23082.93990510  .00002681  00000-0  24051-4 0  9998,2 55655  70.0017  53.8573 0003301 266.7836  93.2982 15.69932398  6216,6737.227,91.724,361.316,356.868,0.0
55655.0,STARLINK-5267,PAYLOAD,2023-03-24 04:40:26,15.69970264,0.0003093,70.0029,53.1433,261.4805,98.604,9.4697e-05,0.0001121,0.0,0 STARLINK-5267,1 55655U 23021AD  23083.19475335  .00011210  00000-0  94697-4 0  9991,2 55655  70.0029  53.1433 0003093 261.4805  98.6040 15.69970264  5940,6737.119,91.721,361.068,356.9,0.0
55655.0,STARLINK-5267,PAYLOAD,2023-03-24 07:43:59,15.69916084,0.0002294,70.0025,52.7841,263.7509,96.3425,-1.5767e-05,-2.106e-05,0.0,0 STARLINK-5267,1 55655U 23021AD  23083.32221153 -.00002106  00000-0 -15767-4 0  9990,2 55655  70.0025  52.7841 0002294 263.7509  96.3425 15.69916084  5966,6737.274,91.725,360.685,357.594,0.0
55655.0,STARLINK-5267,PAYLOAD,2023-03-24 15:22:44,15.69912343,0.0003097,70.0008,51.8866,279.1794,80.9051,-1.673e-05,-2.223e-05,0.0,0 STARLINK-5267,1 55655U 23021AD  23083.64079662 -.00002223  00000-0 -16730-4 0  9992,2 55655  70.0008  51.8866 0003097 279.1794  80.9051 15.69912343  6322,6737.285,91.725,361.236,357.063,0.0
55655.0,STARLINK-5267,PAYLOAD,2023-03-25 00:33:17,15.69867422,0.0003537,70.0015,50.8122,274.1274,85.9518,-8.69e-05,-0.00010624,0.0,0 STARLINK-5267,1 55655U 23021AD  23084.02312408 -.00010624  00000-0 -86900-4 0  9993,2 55655  70.0015  50.8122 0003537 274.1274  85.9518 15.69867422  6073,6737.413,91.727,361.661,356.895,0.0
55655.0,STARLINK-5267,PAYLOAD,2023-03-25 08:12:02,15.69890514,0.0003488,70.0024,49.9167,252.7652,107.3162,-5.223e-05,-6.479e-05,0.0,0 STARLINK-5267,1 55655U 23021AD  23084.34169769 -.00006479  00000-0 -52230-4 0  9990,2 55655  70.0024  49.9167 0003488 252.7652 107.3162 15.69890514  6126,6737.347,91.726,361.562,356.862,0.0
55655.0,STARLINK-5267,PAYLOAD,2023-03-26 04:04:47,15.69947869,0.0002765,70.0032,47.5898,267.6254,92.4625,7.0005e-05,8.221e-05,0.0,0 STARLINK-5267,1 55655U 23021AD  23085.16999225  .00008221  00000-0  70005-4 0  9994,2 55655  70.0032  47.5898 0002765 267.6254  92.4625 15.69947869  6258,6737.183,91.723,360.911,357.185,0.0
55655.0,STARLINK-5267,PAYLOAD,2023-03-26 07:08:17,15.6993561,0.0003651,70.0024,47.2308,275.6993,84.3786,4.335e-05,5.005e-05,0.0,0 STARLINK-5267,1 55655U 23021AD  23085.29743044  .00005005  00000-0  43350-4 0  9994,2 55655  70.0024  47.2308 0003651 275.6993  84.3786 15.69935610  6277,6737.218,91.724,361.543,356.623,0.0
55655.0,STARLINK-5267,PAYLOAD,2023-03-26 22:25:49,15.69923828,0.0003381,70.0032,45.4391,280.8221,79.2594,5.7836e-05,6.747e-05,0.0,0 STARLINK-5267,1 55655U 23021AD  23085.93460470  .00006747  00000-0  57836-4 0  9992,2 55655  70.0032  45.4391 0003381 280.8221  79.2594 15.69923828  6683,6737.252,91.724,361.395,356.839,0.0
55655.0,STARLINK-5267,PAYLOAD,2023-03-26 23:57:34,15.69924505,0.0003395,70.003,45.2599,280.5569,79.5244,5.1456e-05,5.979e-05,0.0,0 STARLINK-5267,1 55655U 23021AD  23085.99832080  .00005979  00000-0  51456-4 0  9996,2 55655  70.0030  45.2599 0003395 280.5569  79.5244 15.69924505  6381,6737.25,91.724,361.402,356.828,0.0
55655.0,STARLINK-5267,PAYLOAD,2023-03-27 07:36:19,15.69937171,0.000318,70.0024,44.3638,278.6177,81.4659,4.6988e-05,5.444e-05,0.0,0 STARLINK-5267,1 55655U 23021AD  23086.31689708  .00005444  00000-0  46988-4 0  9991,2 55655  70.0024  44.3638 0003180 278.6177  81.4659 15.69937171  6434,6737.214,91.723,361.221,356.936,0.0
55655.0,STARLINK-5267,PAYLOAD,2023-03-28 05:00:52,15.69920279,0.0003,70.0018,41.8568,265.467,94.6183,4.9126e-05,5.697e-05,0.0,0 STARLINK-5267,1 55655U 23021AD  23087.20893726  .00005697  00000-0  49126-4 0  9994,2 55655  70.0018  41.8568 0003000 265.4670  94.6183 15.69920279  6578,6737.262,91.724,361.148,357.106,0.0
55655.0,STARLINK-5267,PAYLOAD,2023-03-28 21:50:08,15.69932563,0.0003307,70.0015,39.8846,264.301,95.7808,4.2078e-05,4.851e-05,0.0,0 STARLINK-5267,1 55655U 23021AD  23087.90981505  .00004851  00000-0  42078-4 0  9994,2 55655  70.0015  39.8846 0003307 264.3010  95.7808 15.69932563  6998,6737.227,91.724,361.32,356.864,0.0
55655.0,STARLINK-5267,PAYLOAD,2023-03-29 07:00:39,15.69914461,0.0003028,70.0031,38.8111,261.0867,98.9986,-1.43e-05,-1.931e-05,0.0,0 STARLINK-5267,1 55655U 23021AD  23088.29211951 -.00001931  00000-0 -14300-4 0  9993,2 55655  70.0031  38.8111 0003028 261.0867  98.9986 15.69914461  6746,6737.279,91.725,361.184,357.104,0.0
